[{"OBJECT_NAME":"STARLINK-3646","OBJECT_ID":"2022-017T","EPOCH":"2026-03-09T23:18:49.361760","MEAN_MOTION":15.08838658,"ECCENTRICITY":0.00013794,"INCLINATION":53.219,"RA_OF_ASC_NODE":337.8279,"ARG_OF_PERICENTER":111.4117,"MEAN_ANOMALY":248.7022,"EPHEMERIS_TYPE":0,"CLASSIFICATION_TYPE":"U","NORAD_CAT_ID":51785,"ELEMENT_SET_NO":999,"REV_AT_EPOCH":22246,"BSTAR":-1.8176299e-5,"MEAN_MOTION_DOT":-5.77e-6,"MEAN_MOTION_DDOT":0},{"OBJECT_NAME":"COSMOS 397 DEB","OBJECT_ID":"1971-015S","EPOCH":"2026-03-09T10:33:28.052064","MEAN_MOTION":14.09044081,"ECCENTRICITY":0.04582659,"INCLINATION":65.7053,"RA_OF_ASC_NODE":78.3879,"ARG_OF_PERICENTER":64.4346,"MEAN_ANOMALY":300.3365,"EPHEMERIS_TYPE":0,"CLASSIFICATION_TYPE":"U","NORAD_CAT_ID":5091,"ELEMENT_SET_NO":999,"REV_AT_EPOCH":68954,"BSTAR":0.0011725806,"MEAN_MOTION_DOT":5.343e-5,"MEAN_MOTION_DDOT":0}]
